*******************************************************************************
Ephemeris / WWW_USER Mon Mar 24 08:19:52 2025 Pasadena, USA      / Horizons    
*******************************************************************************
Target body name: (2018 VA2)                      {source: JPL#8}
Center body name: Earth (399)                     {source: DE441}
Center-site name: Mauna Kea
*******************************************************************************
Start time      : A.D. 2019-Jan-16 04:13:00.0000 UT      
Stop  time      : A.D. 2019-Jan-16 16:49:00.0000 UT      
Step-size       : 1 minutes
*******************************************************************************
Target pole/equ : undefined
Target radii    : undefined                                                    
Center geodetic : 204.5278, 19.8260847, 4.21024   {E-lon(deg),Lat(deg),Alt(km)}
Center cylindric: 204.5278, 6006.35451, 2151.0229 {E-lon(deg),Dxy(km),Dz(km)}
Center pole/equ : ITRF93                          {East-longitude positive}
Center radii    : 6378.137, 6378.137, 6356.752 km {Equator_a, b, pole_c}       
Target primary  : Sun
Vis. interferer : MOON (R_eq= 1737.400) km        {source: DE441}
Rel. light bend : Sun                             {source: DE441}
Rel. lght bnd GM: 1.3271E+11 km^3/s^2                                          
Small-body perts: Yes                             {source: SB441-N16}
Atmos refraction: NO (AIRLESS)
RA format       : HMS
Time format     : CAL 
Calendar mode   : Mixed Julian/Gregorian
RTS-only print  : NO       
EOP file        : eop.250321.p250617                                           
EOP coverage    : DATA-BASED 1962-JAN-20 TO 2025-MAR-21. PREDICTS-> 2025-JUN-16
Units conversion: 1 au= 149597870.700 km, c= 299792.458 km/s, 1 day= 86400.0 s 
Table cut-offs 1: Elevation (-90.0deg=NO ),Airmass (>38.000=NO), Daylight (YES)
Table cut-offs 2: Solar elongation (  0.0,180.0=NO ),Local Hour Angle( 0.0=NO )
Table cut-offs 3: RA/DEC angular rate (     0.0=NO )                           
*******************************************************************************
Initial IAU76/J2000 heliocentric ecliptic osculating elements (au, days, deg.):
  EPOCH=  2458428.5 ! 2018-Nov-06.00 (TDB)         Residual RMS= .39675        
   EC= .3242664208426159   QR= .935847567628844    TP= 2458464.9625425939      
   OM= 226.0068906557846   W=  220.7446970607937   IN= 3.947636678272312       
  Equivalent ICRF heliocentric cartesian coordinates (au, au/d):
   X= 7.314601530918681E-01  Y= 6.289465658343808E-01  Z= 2.763726037901882E-01
  VX=-1.554701504922309E-02 VY= 1.109318211007817E-02 VZ= 3.366540373951610E-03
Asteroid physical parameters (km, seconds, rotational period in hours):        
   GM= n.a.                RAD= n.a.               ROTPER= n.a.                
   H= 27.08                G= .150                 B-V= n.a.                   
                           ALBEDO= n.a.            STYP= n.a.                  
*******************************************************************************
 Date__(UT)__HR:MN     R.A._________(ICRF)_________DEC
******************************************************
$$SOE
 2019-Jan-16 10:22  m  13 30 58.096906 -27 18 36.26681
 2019-Jan-16 10:23  m  13 30 58.148660 -27 18 36.47004
 2019-Jan-16 10:24  m  13 30 58.200364 -27 18 36.67324
 2019-Jan-16 10:25  m  13 30 58.252016 -27 18 36.87643
 2019-Jan-16 10:26  m  13 30 58.303618 -27 18 37.07959
 2019-Jan-16 10:27  m  13 30 58.355168 -27 18 37.28273
 2019-Jan-16 10:28  m  13 30 58.406667 -27 18 37.48584
 2019-Jan-16 10:29  m  13 30 58.458116 -27 18 37.68893
 2019-Jan-16 10:30  m  13 30 58.509513 -27 18 37.89199
 2019-Jan-16 10:31  m  13 30 58.560859 -27 18 38.09501
 2019-Jan-16 10:32  m  13 30 58.612155 -27 18 38.29801
 2019-Jan-16 10:33  m  13 30 58.663399 -27 18 38.50097
 2019-Jan-16 10:34  m  13 30 58.714593 -27 18 38.70390
 2019-Jan-16 10:35  m  13 30 58.765736 -27 18 38.90680
 2019-Jan-16 10:36  m  13 30 58.816827 -27 18 39.10966
 2019-Jan-16 10:37  m  13 30 58.867868 -27 18 39.31248
 2019-Jan-16 10:38  m  13 30 58.918858 -27 18 39.51526
 2019-Jan-16 10:39  m  13 30 58.969798 -27 18 39.71800
 2019-Jan-16 10:40  m  13 30 59.020686 -27 18 39.92069
 2019-Jan-16 10:41  m  13 30 59.071524 -27 18 40.12335
 2019-Jan-16 10:42  r  13 30 59.122311 -27 18 40.32596
 2019-Jan-16 10:43  m  13 30 59.173048 -27 18 40.52852
 2019-Jan-16 10:44  m  13 30 59.223734 -27 18 40.73104
 2019-Jan-16 10:45  m  13 30 59.274369 -27 18 40.93351
 2019-Jan-16 10:46  m  13 30 59.324953 -27 18 41.13593
 2019-Jan-16 10:47  m  13 30 59.375487 -27 18 41.33830
 2019-Jan-16 10:48  m  13 30 59.425971 -27 18 41.54061
 2019-Jan-16 10:49  m  13 30 59.476404 -27 18 41.74287
 2019-Jan-16 10:50  m  13 30 59.526787 -27 18 41.94508
 2019-Jan-16 10:51  m  13 30 59.577119 -27 18 42.14723
 2019-Jan-16 10:52  m  13 30 59.627401 -27 18 42.34932
 2019-Jan-16 10:53  m  13 30 59.677632 -27 18 42.55135
 2019-Jan-16 10:54  m  13 30 59.727813 -27 18 42.75332
 2019-Jan-16 10:55  m  13 30 59.777944 -27 18 42.95523
 2019-Jan-16 10:56  m  13 30 59.828025 -27 18 43.15708
 2019-Jan-16 10:57  m  13 30 59.878055 -27 18 43.35886
 2019-Jan-16 10:58  m  13 30 59.928036 -27 18 43.56057
 2019-Jan-16 10:59  m  13 30 59.977966 -27 18 43.76222
 2019-Jan-16 11:00  m  13 31 00.027846 -27 18 43.96380
 2019-Jan-16 11:01  m  13 31 00.077677 -27 18 44.16531
 2019-Jan-16 11:02  m  13 31 00.127457 -27 18 44.36675
 2019-Jan-16 11:03  m  13 31 00.177187 -27 18 44.56812
 2019-Jan-16 11:04  m  13 31 00.226868 -27 18 44.76941
 2019-Jan-16 11:05  m  13 31 00.276499 -27 18 44.97062
 2019-Jan-16 11:06  m  13 31 00.326080 -27 18 45.17177
 2019-Jan-16 11:07  m  13 31 00.375611 -27 18 45.37283
 2019-Jan-16 11:08  m  13 31 00.425093 -27 18 45.57381
 2019-Jan-16 11:09  m  13 31 00.474525 -27 18 45.77472
 2019-Jan-16 11:10  m  13 31 00.523908 -27 18 45.97554
 2019-Jan-16 11:11  m  13 31 00.573241 -27 18 46.17628
 2019-Jan-16 11:12  m  13 31 00.622525 -27 18 46.37693
 2019-Jan-16 11:13  m  13 31 00.671759 -27 18 46.57750
 2019-Jan-16 11:14  m  13 31 00.720945 -27 18 46.77798
 2019-Jan-16 11:15  m  13 31 00.770080 -27 18 46.97838
 2019-Jan-16 11:16  m  13 31 00.819167 -27 18 47.17868
 2019-Jan-16 11:17  m  13 31 00.868205 -27 18 47.37889
 2019-Jan-16 11:18  m  13 31 00.917193 -27 18 47.57901
 2019-Jan-16 11:19  m  13 31 00.966133 -27 18 47.77904
 2019-Jan-16 11:20  m  13 31 01.015023 -27 18 47.97898
 2019-Jan-16 11:21  m  13 31 01.063865 -27 18 48.17881
 2019-Jan-16 11:22  m  13 31 01.112658 -27 18 48.37855
 2019-Jan-16 11:23  m  13 31 01.161402 -27 18 48.57819
 2019-Jan-16 11:24  m  13 31 01.210098 -27 18 48.77774
 2019-Jan-16 11:25  m  13 31 01.258745 -27 18 48.97718
 2019-Jan-16 11:26  m  13 31 01.307343 -27 18 49.17652
 2019-Jan-16 11:27  m  13 31 01.355893 -27 18 49.37575
 2019-Jan-16 11:28  m  13 31 01.404395 -27 18 49.57488
 2019-Jan-16 11:29  m  13 31 01.452848 -27 18 49.77390
 2019-Jan-16 11:30  m  13 31 01.501253 -27 18 49.97282
 2019-Jan-16 11:31  m  13 31 01.549610 -27 18 50.17162
 2019-Jan-16 11:32  m  13 31 01.597919 -27 18 50.37032
 2019-Jan-16 11:33  m  13 31 01.646180 -27 18 50.56891
 2019-Jan-16 11:34  m  13 31 01.694393 -27 18 50.76738
 2019-Jan-16 11:35  m  13 31 01.742558 -27 18 50.96574
 2019-Jan-16 11:36  m  13 31 01.790675 -27 18 51.16398
 2019-Jan-16 11:37  m  13 31 01.838744 -27 18 51.36211
 2019-Jan-16 11:38  m  13 31 01.886766 -27 18 51.56012
 2019-Jan-16 11:39  m  13 31 01.934741 -27 18 51.75801
 2019-Jan-16 11:40  m  13 31 01.982668 -27 18 51.95578
 2019-Jan-16 11:41  m  13 31 02.030547 -27 18 52.15343
 2019-Jan-16 11:42  m  13 31 02.078380 -27 18 52.35096
 2019-Jan-16 11:43  m  13 31 02.126165 -27 18 52.54836
 2019-Jan-16 11:44  m  13 31 02.173903 -27 18 52.74564
 2019-Jan-16 11:45  m  13 31 02.221594 -27 18 52.94279
 2019-Jan-16 11:46  m  13 31 02.269238 -27 18 53.13982
 2019-Jan-16 11:47  m  13 31 02.316835 -27 18 53.33671
 2019-Jan-16 11:48  m  13 31 02.364385 -27 18 53.53348
 2019-Jan-16 11:49  m  13 31 02.411889 -27 18 53.73011
 2019-Jan-16 11:50  m  13 31 02.459346 -27 18 53.92661
 2019-Jan-16 11:51  m  13 31 02.506757 -27 18 54.12298
 2019-Jan-16 11:52  m  13 31 02.554121 -27 18 54.31921
 2019-Jan-16 11:53  m  13 31 02.601439 -27 18 54.51531
 2019-Jan-16 11:54  m  13 31 02.648711 -27 18 54.71127
 2019-Jan-16 11:55  m  13 31 02.695937 -27 18 54.90709
 2019-Jan-16 11:56  m  13 31 02.743116 -27 18 55.10277
 2019-Jan-16 11:57  m  13 31 02.790250 -27 18 55.29831
 2019-Jan-16 11:58  m  13 31 02.837338 -27 18 55.49371
 2019-Jan-16 11:59  m  13 31 02.884380 -27 18 55.68896
 2019-Jan-16 12:00  m  13 31 02.931377 -27 18 55.88407
 2019-Jan-16 12:01  m  13 31 02.978328 -27 18 56.07903
 2019-Jan-16 12:02  m  13 31 03.025234 -27 18 56.27385
 2019-Jan-16 12:03  m  13 31 03.072094 -27 18 56.46852
 2019-Jan-16 12:04  m  13 31 03.118909 -27 18 56.66304
 2019-Jan-16 12:05  m  13 31 03.165679 -27 18 56.85740
 2019-Jan-16 12:06  m  13 31 03.212404 -27 18 57.05162
 2019-Jan-16 12:07  m  13 31 03.259084 -27 18 57.24568
 2019-Jan-16 12:08  m  13 31 03.305720 -27 18 57.43959
 2019-Jan-16 12:09  m  13 31 03.352310 -27 18 57.63335
 2019-Jan-16 12:10  m  13 31 03.398856 -27 18 57.82694
 2019-Jan-16 12:11  m  13 31 03.445358 -27 18 58.02038
 2019-Jan-16 12:12  m  13 31 03.491815 -27 18 58.21366
 2019-Jan-16 12:13  m  13 31 03.538228 -27 18 58.40678
 2019-Jan-16 12:14  m  13 31 03.584597 -27 18 58.59974
 2019-Jan-16 12:15  m  13 31 03.630922 -27 18 58.79254
 2019-Jan-16 12:16  m  13 31 03.677203 -27 18 58.98517
 2019-Jan-16 12:17  m  13 31 03.723440 -27 18 59.17764
 2019-Jan-16 12:18  m  13 31 03.769634 -27 18 59.36994
 2019-Jan-16 12:19  m  13 31 03.815784 -27 18 59.56208
 2019-Jan-16 12:20  m  13 31 03.861890 -27 18 59.75404
 2019-Jan-16 12:21  m  13 31 03.907953 -27 18 59.94584
 2019-Jan-16 12:22  m  13 31 03.953973 -27 19 00.13747
 2019-Jan-16 12:23  m  13 31 03.999950 -27 19 00.32892
 2019-Jan-16 12:24  m  13 31 04.045884 -27 19 00.52021
